{"spkid": "50673999", "covariance": {"epoch": "2456943.5", "data": [["2.500997611791474E-12", "-2.870651974998933E-12", "-7.88853318790252E-12", "5.390192607327349E-11", "-5.764938323126013E-11", "1.561552360761766E-11"], ["-2.870651974998933E-12", "3.295011843357986E-12", "9.073996192148922E-12", "-6.193156345129365E-11", "6.622899039547081E-11", "-1.791283359124008E-11"], ["-7.88853318790252E-12", "9.073996192148922E-12", "4.906318547207898E-9", "-5.895863463585212E-9", "9.603403385338268E-9", "1.017835155243174E-11"], ["5.390192607327349E-11", "-6.193156345129365E-11", "-5.895863463585212E-9", "1.163417182784963E-8", "-1.602917672491839E-8", "4.441623131099154E-11"], ["-5.764938323126013E-11", "6.622899039547081E-11", "9.603403385338268E-9", "-1.602917672491839E-8", "2.323500812075134E-8", "-2.580427895735686E-11"], ["1.561552360761766E-11", "-1.791283359124008E-11", "1.017835155243174E-11", "4.441623131099154E-11", "-2.580427895735686E-11", "1.201337385097534E-10"]], "elements": [{"label": "e", "title": "eccentricity", "value": ".2125545705782283", "units": null, "name": "e", "sigma": 1.58145427116672e-06}, {"label": "q", "name": "q", "sigma": 1.81521674831354e-06, "value": ".7519029782156096", "title": "perihelion distance", "units": "au"}, {"label": "tp", "name": "tp", "sigma": 7.00451179398529e-05, "value": "2457061.234456406956", "title": "time of perihelion passage", "units": "TDB"}, {"label": "node", "value": "304.9588064437773", "title": "longitude of the ascending node", "units": "deg", "sigma": 0.00010786181821131, "name": "om"}, {"label": "peri", "sigma": 0.000152430338583733, "name": "w", "units": "deg", "value": "191.7999032988973", "title": "argument of perihelion"}, {"sigma": 1.09605537501421e-05, "name": "i", "units": "deg", "title": "inclination", "value": "2.447801838063087", "label": "i"}], "labels": ["e", "q", "tp", "node", "peri", "i"]}, "elements": [{"label": "e", "units": null, "value": ".2125085784788384", "title": "eccentricity", "name": "e", "sigma": "1.5903E-6"}, {"label": "a", "value": ".9550659511678203", "title": "semi-major axis", "units": "au", "sigma": "3.7598E-7", "name": "a"}, {"value": ".7521062435316073", "title": "perihelion distance", "units": "au", "name": "q", "sigma": "1.8149E-6", "label": "q"}, {"units": "deg", "title": "inclination; angle with respect to x-y ecliptic plane", "value": "2.443584565569987", "name": "i", "sigma": "1.0958E-5", "label": "i"}, {"units": "deg", "value": "304.624957066002", "title": "longitude of the ascending node", "sigma": ".00010836", "name": "om", "label": "node"}, {"label": "peri", "title": "argument of perihelion", "value": "191.9237537386211", "units": "deg", "name": "w", "sigma": ".00015169"}, {"units": "deg", "value": "50.65111954340823", "title": "mean anomaly", "sigma": ".0026537", "name": "ma", "label": "M"}, {"title": "time of perihelion passage", "value": "2461152.533832604570", "units": "TDB", "name": "tp", "sigma": ".0024847", "label": "tp"}, {"label": "period", "title": "sidereal orbital period", "value": "340.9168527372058", "units": "d", "sigma": ".00020131", "name": "per"}, {"sigma": "6.2356E-7", "name": "n", "title": "mean motion", "value": "1.055975957508631", "units": "deg/d", "label": "n"}, {"units": "au", "value": "1.158025658804033", "title": "aphelion distance", "name": "ad", "sigma": "4.5588E-7", "label": "Q"}], "epoch": "2461200.5"}